GLOBALSTAR M035         
1 25851U 99037A   24283.64877013 -.00000052  00000+0  43710-3 0  9999
2 25851  51.9934 253.6890 0013741 298.2483 232.5861 11.04533104 68574
GLOBALSTAR M032         
1 25852U 99037B   24283.77896721 -.00000079  00000+0 -38636-3 0  9992
2 25852  51.9931  95.8671 0011613 105.0121 255.1965 11.19063824106757
GLOBALSTAR M051         
1 25853U 99037C   24283.68045816 -.00000083  00000+0 -26660-3 0  9993
2 25853  51.9790 285.2084 0001300 116.7326 243.3618 11.42200480103761
GLOBALSTAR M030         
1 25854U 99037D   24283.82511797 -.00000049  00000+0  54275-3 0  9990
2 25854  51.9853 106.8811 0003221 329.9404  30.1228 11.55102673121114
GLOBALSTAR M048         
1 25872U 99041A   24283.51142218 -.00000040  00000+0  81346-3 0  9999
2 25872  51.9356 210.9566 0013614 107.6939  62.8203 11.33850154 96540
GLOBALSTAR M026         
1 25873U 99041B   24283.64779698 -.00000067  00000+0 -96628-4 0  9992
2 25873  52.0057  14.2808 0001641 168.8730 339.1586 11.06830455120746
GLOBALSTAR M043         
1 25874U 99041C   24283.79739895 -.00000086  00000+0 -52791-3 0  9997
2 25874  51.9415 307.9453 0012941 244.5347 286.5999 11.25683067 94673
GLOBALSTAR M028         
1 25875U 99041D   24283.82900971 -.00000058  00000+0  26765-3 0  9997
2 25875  51.9619 219.5797 0062812 247.9072 111.5111 12.50566305158884
